{"type": "FeatureCollection", "features": [ {"type": "Feature", "properties": {"norad_id": 34909, "name": "COSMOS 2251 DEB", "group": "cosmos-2251-debris", "lat": -62.88624041053735, "lon": 50.08113740681172, "alt_km": 623.8068769057472, "timestamp": "2025-12-08T21:31:05.061927+00:00", "meta": {"OBJECT_NAME": "COSMOS 2251 DEB", "OBJECT_ID": "1993-036ADE", "EPOCH": "2025-12-08T13:42:07.111296", "MEAN_MOTION": 14.77774995, "ECCENTRICITY": 0.00848107, "INCLINATION": 74.0146, "RA_OF_ASC_NODE": 84.7668, "ARG_OF_PERICENTER": 221.4998, "MEAN_ANOMALY": 137.9718, "EPHEMERIS_TYPE": 0, "CLASSIFICATION_TYPE": "U", "NORAD_CAT_ID": 34909, "ELEMENT_SET_NO": 999, "REV_AT_EPOCH": 66790, "BSTAR": 0.0010068563, "MEAN_MOTION_DOT": 7.646e-05, "MEAN_MOTION_DDOT": 0}, "tle": {"line1": "1 34909U 93036ADE 25342.57091564  .00007646  00000+0  10069-2 0  9999", "line2": "2 34909  74.0146  84.7668 0084810 221.4998 137.9718 14.77774995667908"}}, "geometry": {"type": "Point", "coordinates": [50.08113740681172, -62.88624041053735]}}, {"type": "Feature", "properties": {"norad_id": 34910, "name": "COSMOS 2251 DEB", "group": "cosmos-2251-debris", "lat": 26.05575121396944, "lon": 115.62273802968683, "alt_km": 1444.967844353172, "timestamp": "2025-12-08T21:31:05.061937+00:00", "meta": {"OBJECT_NAME": "COSMOS 2251 DEB", "OBJECT_ID": "1993-036ADF", "EPOCH": "2025-12-04T03:27:09.174816", "MEAN_MOTION": 13.3765034, "ECCENTRICITY": 0.04679235, "INCLINATION": 73.8763, "RA_OF_ASC_NODE": 114.9889, "ARG_OF_PERICENTER": 235.2756, "MEAN_ANOMALY": 311.3517, "EPHEMERIS_TYPE": 0, "CLASSIFICATION_TYPE": "U", "NORAD_CAT_ID": 34910, "ELEMENT_SET_NO": 999, "REV_AT_EPOCH": 81409, "BSTAR": 0.0018660381, "MEAN_MOTION_DOT": 1.821e-05, "MEAN_MOTION_DDOT": 0}, "tle": {"line1": "1 34910U 93036ADF 25338.14385619  .00001821  00000+0  18660-2 0  9990", "line2": "2 34910  73.8763 114.9889 0467923 235.2756 311.3517 13.37650340814099"}}, "geometry": {"type": "Point", "coordinates": [115.62273802968683, 26.05575121396944]}}, {"type": "Feature", "properties": {"norad_id": 34911, "name": "COSMOS 2251 DEB", "group": "cosmos-2251-debris", "lat": -70.65816211884402, "lon": -162.5417354390222, "alt_km": 709.2787443881125, "timestamp": "2025-12-08T21:31:05.061947+00:00", "meta": {"OBJECT_NAME": "COSMOS 2251 DEB", "OBJECT_ID": "1993-036ADG", "EPOCH": "2025-12-08T00:33:11.051712", "MEAN_MOTION": 14.59358852, "ECCENTRICITY": 0.00833702, "INCLINATION": 74.0411, "RA_OF_ASC_NODE": 253.7326, "ARG_OF_PERICENTER": 20.3643, "MEAN_ANOMALY": 354.2304, "EPHEMERIS_TYPE": 0, "CLASSIFICATION_TYPE": "U", "NORAD_CAT_ID": 34911, "ELEMENT_SET_NO": 999, "REV_AT_EPOCH": 88518, "BSTAR": 0.00028084005, "MEAN_MOTION_DOT": 1.363e-05, "MEAN_MOTION_DDOT": 0}, "tle": {"line1": "1 34911U 93036ADG 25342.02304458  .00001363  00000+0  28084-3 0  9998", "line2": "2 34911  74.0411 253.7326 0083370  20.3643 354.2304 14.59358852885185"}}, "geometry": {"type": "Point", "coordinates": [-162.5417354390222, -70.65816211884402]}}, {"type": "Feature", "properties": {"norad_id": 34913, "name": "COSMOS 2251 DEB", "group": "cosmos-2251-debris", "lat": -73.69016261135107, "lon": -172.28200061272307, "alt_km": 793.2716946807768, "timestamp": "2025-12-08T21:31:05.061957+00:00", "meta": {"OBJECT_NAME": "COSMOS 2251 DEB", "OBJECT_ID": "1993-036ADJ", "EPOCH": "2025-12-08T14:23:24.561312", "MEAN_MOTION": 14.34635579, "ECCENTRICITY": 0.00201999, "INCLINATION": 74.0281, "RA_OF_ASC_NODE": 290.0848, "ARG_OF_PERICENTER": 41.3537, "MEAN_ANOMALY": 132.2282, "EPHEMERIS_TYPE": 0, "CLASSIFICATION_TYPE": "U", "NORAD_CAT_ID": 34913, "ELEMENT_SET_NO": 999, "REV_AT_EPOCH": 65128, "BSTAR": 0.00010953097, "MEAN_MOTION_DOT": 2.84e-06, "MEAN_MOTION_DDOT": 0}, "tle": {"line1": "1 34913U 93036ADJ 25342.59958983  .00000284  00000+0  10953-3 0  9997", "line2": "2 34913  74.0281 290.0848 0020199  41.3537 132.2282 14.34635579651288"}}, "geometry": {"type": "Point", "coordinates": [-172.28200061272307, -73.69016261135107]}}, {"type": "Feature", "properties": {"norad_id": 34918, "name": "COSMOS 2251 DEB", "group": "cosmos-2251-debris", "lat": 44.194042811153004, "lon": -22.91206904395282, "alt_km": 697.199752106957, "timestamp": "2025-12-08T21:31:05.061967+00:00", "meta": {"OBJECT_NAME": "COSMOS 2251 DEB", "OBJECT_ID": "1993-036ADP", "EPOCH": "2025-12-02T07:49:20.078112", "MEAN_MOTION": 14.60858458, "ECCENTRICITY": 0.0034182, "INCLINATION": 74.0712, "RA_OF_ASC_NODE": 333.4916, "ARG_OF_PERICENTER": 302.4495, "MEAN_ANOMALY": 120.4085, "EPHEMERIS_TYPE": 0, "CLASSIFICATION_TYPE": "U", "NORAD_CAT_ID": 34918, "ELEMENT_SET_NO": 999, "REV_AT_EPOCH": 65184, "BSTAR": 0.0024749, "MEAN_MOTION_DOT": 0.00012194, "MEAN_MOTION_DDOT": 0}, "tle": {"line1": "1 34918U 93036ADP 25336.32592683  .00012194  00000+0  24749-2 0  9997", "line2": "2 34918  74.0712 333.4916 0034182 302.4495 120.4085 14.60858458651845"}}, "geometry": {"type": "Point", "coordinates": [-22.91206904395282, 44.194042811153004]}}, {"type": "Feature", "properties": {"norad_id": 34924, "name": "COSMOS 2251 DEB", "group": "cosmos-2251-debris", "lat": 54.769723488947534, "lon": 120.68501596945697, "alt_km": 709.3211454250732, "timestamp": "2025-12-08T21:31:05.061977+00:00", "meta": {"OBJECT_NAME": "COSMOS 2251 DEB", "OBJECT_ID": "1993-036ADV", "EPOCH": "2025-12-07T17:51:59.025024", "MEAN_MOTION": 14.5995474, "ECCENTRICITY": 0.00548404, "INCLINATION": 74.0409, "RA_OF_ASC_NODE": 98.9779, "ARG_OF_PERICENTER": 184.8528, "MEAN_ANOMALY": 300.8119, "EPHEMERIS_TYPE": 0, "CLASSIFICATION_TYPE": "U", "NORAD_CAT_ID": 34924, "ELEMENT_SET_NO": 999, "REV_AT_EPOCH": 87650, "BSTAR": 0.0019218661, "MEAN_MOTION_DOT": 9.392e-05, "MEAN_MOTION_DDOT": 0}, "tle": {"line1": "1 34924U 93036ADV 25341.74443316  .00009392  00000+0  19219-2 0  9996", "line2": "2 34924  74.0409  98.9779 0054840 184.8528 300.8119 14.59954740876500"}}, "geometry": {"type": "Point", "coordinates": [120.68501596945697, 54.769723488947534]}}, {"type": "Feature", "properties": {"norad_id": 34944, "name": "COSMOS 2251 DEB", "group": "cosmos-2251-debris", "lat": 69.20524910679048, "lon": -70.85036038663232, "alt_km": 681.9408037510893, "timestamp": "2025-12-08T21:31:05.061987+00:00", "meta": {"OBJECT_NAME": "COSMOS 2251 DEB", "OBJECT_ID": "1993-036ADX", "EPOCH": "2025-12-07T09:30:46.029312", "MEAN_MOTION": 14.14167925, "ECCENTRICITY": 0.02195348, "INCLINATION": 73.7495, "RA_OF_ASC_NODE": 241.6775, "ARG_OF_PERICENTER": 90.2413, "MEAN_ANOMALY": 272.3884, "EPHEMERIS_TYPE": 0, "CLASSIFICATION_TYPE": "U", "NORAD_CAT_ID": 34944, "ELEMENT_SET_NO": 999, "REV_AT_EPOCH": 64007, "BSTAR": 0.00099492053, "MEAN_MOTION_DOT": 2.364e-05, "MEAN_MOTION_DDOT": 0}, "tle": {"line1": "1 34944U 93036ADX 25341.39636608  .00002364  00000+0  99492-3 0  9991", "line2": "2 34944  73.7495 241.6775 0219534  90.2413 272.3884 14.14167925640077"}}, "geometry": {"type": "Point", "coordinates": [-70.85036038663232, 69.20524910679048]}}, {"type": "Feature", "properties": {"norad_id": 34946, "name": "COSMOS 2251 DEB", "group": "cosmos-2251-debris", "lat": -53.34625883219388, "lon": -167.8784640528507, "alt_km": 704.301774755133, "timestamp": "2025-12-08T21:31:05.061997+00:00", "meta": {"OBJECT_NAME": "COSMOS 2251 DEB", "OBJECT_ID": "1993-036ADZ", "EPOCH": "2025-12-08T07:18:20.444256", "MEAN_MOTION": 14.61959947, "ECCENTRICITY": 0.00488078, "INCLINATION": 74.0233, "RA_OF_ASC_NODE": 350.6111, "ARG_OF_PERICENTER": 129.2241, "MEAN_ANOMALY": 231.3274, "EPHEMERIS_TYPE": 0, "CLASSIFICATION_TYPE": "U", "NORAD_CAT_ID": 34946, "ELEMENT_SET_NO": 999, "REV_AT_EPOCH": 88144, "BSTAR": 0.00082861214, "MEAN_MOTION_DOT": 4.194e-05, "MEAN_MOTION_DDOT": 0}, "tle": {"line1": "1 34946U 93036ADZ 25342.30440329  .00004194  00000+0  82861-3 0  9993", "line2": "2 34946  74.0233 350.6111 0048807 129.2241 231.3274 14.61959947881444"}}, "geometry": {"type": "Point", "coordinates": [-167.8784640528507, -53.34625883219388]}}, {"type": "Feature", "properties": {"norad_id": 34949, "name": "COSMOS 2251 DEB", "group": "cosmos-2251-debris", "lat": -30.003182575158103, "lon": 107.63984077009593, "alt_km": 630.3362405260186, "timestamp": "2025-12-08T21:31:05.062007+00:00", "meta": {"OBJECT_NAME": "COSMOS 2251 DEB", "OBJECT_ID": "1993-036AEC", "EPOCH": "2025-12-07T03:18:23.961312", "MEAN_MOTION": 14.73936848, "ECCENTRICITY": 0.00804436, "INCLINATION": 74.018, "RA_OF_ASC_NODE": 120.5995, "ARG_OF_PERICENTER": 267.0595, "MEAN_ANOMALY": 92.137, "EPHEMERIS_TYPE": 0, "CLASSIFICATION_TYPE": "U", "NORAD_CAT_ID": 34949, "ELEMENT_SET_NO": 999, "REV_AT_EPOCH": 88279, "BSTAR": 0.00083987468, "MEAN_MOTION_DOT": 5.775e-05, "MEAN_MOTION_DDOT": 0}, "tle": {"line1": "1 34949U 93036AEC 25341.13777733  .00005775  00000+0  83987-3 0  9994", "line2": "2 34949  74.0180 120.5995 0080443 267.0595  92.1370 14.73936848882794"}}, "geometry": {"type": "Point", "coordinates": [107.63984077009593, -30.003182575158103]}}, {"type": "Feature", "properties": {"norad_id": 34953, "name": "COSMOS 2251 DEB", "group": "cosmos-2251-debris", "lat": 12.196102079421227, "lon": 38.437381646070065, "alt_km": 626.1956319314904, "timestamp": "2025-12-08T21:31:05.062017+00:00", "meta": {"OBJECT_NAME": "COSMOS 2251 DEB", "OBJECT_ID": "1993-036AEG", "EPOCH": "2025-12-08T13:58:22.577664", "MEAN_MOTION": 14.68902056, "ECCENTRICITY": 0.00578256, "INCLINATION": 74.0931, "RA_OF_ASC_NODE": 35.5097, "ARG_OF_PERICENTER": 28.8094, "MEAN_ANOMALY": 122.3971, "EPHEMERIS_TYPE": 0, "CLASSIFICATION_TYPE": "U", "NORAD_CAT_ID": 34953, "ELEMENT_SET_NO": 999, "REV_AT_EPOCH": 88067, "BSTAR": 0.0011678269, "MEAN_MOTION_DOT": 6.983e-05, "MEAN_MOTION_DDOT": 0}, "tle": {"line1": "1 34953U 93036AEG 25342.58220576  .00006983  00000+0  11678-2 0  9996", "line2": "2 34953  74.0931  35.5097 0057825  28.8094 122.3971 14.68902056880672"}}, "geometry": {"type": "Point", "coordinates": [38.437381646070065, 12.196102079421227]}}]}